{"fetched_at":"2026-07-06T18:35:16.154Z","source":"https://celestrak.org/NORAD/elements/gp.php?GROUP=planet&FORMAT=JSON","constellation":"tanager","records":[{"OBJECT_NAME":"TANAGER-1","OBJECT_ID":"2024-149AR","EPOCH":"2026-07-06T04:55:16.920480","CLASSIFICATION_TYPE":"U","MEAN_MOTION":15.44201249,"ECCENTRICITY":0.00012464,"INCLINATION":97.2308,"RA_OF_ASC_NODE":281.3898,"ARG_OF_PERICENTER":188.8374,"MEAN_ANOMALY":171.2853,"EPHEMERIS_TYPE":0,"NORAD_CAT_ID":60507,"ELEMENT_SET_NO":999,"REV_AT_EPOCH":10597,"BSTAR":0.000011027677,"MEAN_MOTION_DOT":0.00000421,"MEAN_MOTION_DDOT":0}]}
