TANAGER-1               
1 60507U 24149AR  26187.20505695  .00000421  00000+0  11028-4 0  9996
2 60507  97.2308 281.3898 0001246 188.8374 171.2853 15.44201249105971
